STARLINK-30983          
1 58514U 23191G   26068.50261324  .00008781  00000+0  33680-3 0  9990
2 58514  42.9994 104.4084 0000775 285.9058  74.1707 15.26724672125094
BLUEBON                 
1 62688U 25009CH  26068.70316231  .00010452  00000+0  37313-3 0  9992
2 62688  97.4017 152.2033 0001193  43.3900 316.7434 15.29047253 63767
